{"type": "FeatureCollection", "features": [{"type": "Feature", "properties": {"norad_id": 22490, "name": "SCD 1", "group": "resource", "lat": 20.965942940453747, "lon": -41.31027599238054, "alt_km": 704.3338729154484, "timestamp": "2025-12-26T10:30:49.915674+00:00", "meta": {"OBJECT_NAME": "SCD 1", "OBJECT_ID": "1993-009B", "EPOCH": "2025-12-25T16:00:22.325184", "MEAN_MOTION": 14.46007346, "ECCENTRICITY": 0.0042177, "INCLINATION": 24.9675, "RA_OF_ASC_NODE": 198.8837, "ARG_OF_PERICENTER": 101.5468, "MEAN_ANOMALY": 317.8225, "EPHEMERIS_TYPE": 0, "CLASSIFICATION_TYPE": "U", "NORAD_CAT_ID": 22490, "ELEMENT_SET_NO": 999, "REV_AT_EPOCH": 73597, "BSTAR": 8.5981e-05, "MEAN_MOTION_DOT": 5e-06, "MEAN_MOTION_DDOT": 0}, "tle": {"line1": "1 22490U 93009B   25359.66692506  .00000500  00000+0  85981-4 0  9991", "line2": "2 22490  24.9675 198.8837 0042177 101.5468 317.8225 14.46007346735976"}}, "geometry": {"type": "Point", "coordinates": [-41.31027599238054, 20.965942940453747]}}, {"type": "Feature", "properties": {"norad_id": 25397, "name": "TECHSAT 1B (GO-32)", "group": "resource", "lat": 8.230274902827222, "lon": 165.27968699502387, "alt_km": 813.2169311565849, "timestamp": "2025-12-26T10:30:49.915703+00:00", "meta": {"OBJECT_NAME": "TECHSAT 1B (GO-32)", "OBJECT_ID": "1998-043D", "EPOCH": "2025-12-25T21:54:35.731584", "MEAN_MOTION": 14.24380587, "ECCENTRICITY": 0.0001626, "INCLINATION": 98.9934, "RA_OF_ASC_NODE": 343.4298, "ARG_OF_PERICENTER": 35.4202, "MEAN_ANOMALY": 324.7083, "EPHEMERIS_TYPE": 0, "CLASSIFICATION_TYPE": "U", "NORAD_CAT_ID": 25397, "ELEMENT_SET_NO": 999, "REV_AT_EPOCH": 42666, "BSTAR": 5.7042e-05, "MEAN_MOTION_DOT": 8.5e-07, "MEAN_MOTION_DDOT": 0}, "tle": {"line1": "1 25397U 98043D   25359.91291356  .00000085  00000+0  57042-4 0  9994", "line2": "2 25397  98.9934 343.4298 0001626  35.4202 324.7083 14.24380587426667"}}, "geometry": {"type": "Point", "coordinates": [165.27968699502387, 8.230274902827222]}}, {"type": "Feature", "properties": {"norad_id": 25504, "name": "SCD 2", "group": "resource", "lat": 20.138021772364933, "lon": -174.47796538320046, "alt_km": 724.9287401418487, "timestamp": "2025-12-26T10:30:49.915719+00:00", "meta": {"OBJECT_NAME": "SCD 2", "OBJECT_ID": "1998-060A", "EPOCH": "2025-12-25T12:59:50.528256", "MEAN_MOTION": 14.45430101, "ECCENTRICITY": 0.0017068, "INCLINATION": 24.9956, "RA_OF_ASC_NODE": 62.9589, "ARG_OF_PERICENTER": 88.2247, "MEAN_ANOMALY": 42.4879, "EPHEMERIS_TYPE": 0, "CLASSIFICATION_TYPE": "U", "NORAD_CAT_ID": 25504, "ELEMENT_SET_NO": 999, "REV_AT_EPOCH": 43517, "BSTAR": 7.5618e-05, "MEAN_MOTION_DOT": 4.53e-06, "MEAN_MOTION_DDOT": 0}, "tle": {"line1": "1 25504U 98060A   25359.54155704  .00000453  00000+0  75618-4 0  9996", "line2": "2 25504  24.9956  62.9589 0017068  88.2247  42.4879 14.45430101435172"}}, "geometry": {"type": "Point", "coordinates": [-174.47796538320046, 20.138021772364933]}}, {"type": "Feature", "properties": {"norad_id": 25757, "name": "DLR-TUBSAT", "group": "resource", "lat": -32.21027595384878, "lon": -9.118051047476271, "alt_km": 734.0720292699243, "timestamp": "2025-12-26T10:30:49.915733+00:00", "meta": {"OBJECT_NAME": "DLR-TUBSAT", "OBJECT_ID": "1999-029B", "EPOCH": "2025-12-17T13:22:10.787520", "MEAN_MOTION": 14.52359578, "ECCENTRICITY": 0.00141996, "INCLINATION": 98.6566, "RA_OF_ASC_NODE": 336.2196, "ARG_OF_PERICENTER": 177.8976, "MEAN_ANOMALY": 182.2281, "EPHEMERIS_TYPE": 0, "CLASSIFICATION_TYPE": "U", "NORAD_CAT_ID": 25757, "ELEMENT_SET_NO": 999, "REV_AT_EPOCH": 40688, "BSTAR": 3.7650132e-05, "MEAN_MOTION_DOT": 1.05e-06, "MEAN_MOTION_DDOT": 0}, "tle": {"line1": "1 25757U 99029B   25351.55706930  .00000105  00000+0  37650-4 0  9996", "line2": "2 25757  98.6566 336.2196 0014199 177.8976 182.2281 14.52359578406886"}}, "geometry": {"type": "Point", "coordinates": [-9.118051047476271, -32.21027595384878]}}, {"type": "Feature", "properties": {"norad_id": 25994, "name": "TERRA", "group": "resource", "lat": 81.97061947626344, "lon": -44.89584570062054, "alt_km": 680.5607180310972, "timestamp": "2025-12-26T10:30:49.915745+00:00", "meta": {"OBJECT_NAME": "TERRA", "OBJECT_ID": "1999-068A", "EPOCH": "2025-12-26T03:48:06.533280", "MEAN_MOTION": 14.60916328, "ECCENTRICITY": 0.0003393, "INCLINATION": 97.973, "RA_OF_ASC_NODE": 51.3492, "ARG_OF_PERICENTER": 67.7097, "MEAN_ANOMALY": 353.1976, "EPHEMERIS_TYPE": 0, "CLASSIFICATION_TYPE": "U", "NORAD_CAT_ID": 25994, "ELEMENT_SET_NO": 999, "REV_AT_EPOCH": 38434, "BSTAR": 0.00010137, "MEAN_MOTION_DOT": 4.52e-06, "MEAN_MOTION_DDOT": 0}, "tle": {"line1": "1 25994U 99068A   25360.15840895  .00000452  00000+0  10137-3 0  9992", "line2": "2 25994  97.9730  51.3492 0003393  67.7097 353.1976 14.60916328384340"}}, "geometry": {"type": "Point", "coordinates": [-44.89584570062054, 81.97061947626344]}}, {"type": "Feature", "properties": {"norad_id": 27004, "name": "MAROC-TUBSAT", "group": "resource", "lat": -61.276607828770665, "lon": -172.509468062306, "alt_km": 1001.6322312100383, "timestamp": "2025-12-26T10:30:49.915758+00:00", "meta": {"OBJECT_NAME": "MAROC-TUBSAT", "OBJECT_ID": "2001-056D", "EPOCH": "2025-12-26T02:36:55.896192", "MEAN_MOTION": 13.70253547, "ECCENTRICITY": 0.0019301, "INCLINATION": 99.7917, "RA_OF_ASC_NODE": 168.7883, "ARG_OF_PERICENTER": 224.7035, "MEAN_ANOMALY": 249.711, "EPHEMERIS_TYPE": 0, "CLASSIFICATION_TYPE": "U", "NORAD_CAT_ID": 27004, "ELEMENT_SET_NO": 999, "REV_AT_EPOCH": 20248, "BSTAR": 3.0762e-05, "MEAN_MOTION_DOT": -2e-07, "MEAN_MOTION_DDOT": 0}, "tle": {"line1": "1 27004U 01056D   25360.10898028 -.00000020  00000+0  30762-4 0  9991", "line2": "2 27004  99.7917 168.7883 0019301 224.7035 249.7110 13.70253547202482"}}, "geometry": {"type": "Point", "coordinates": [-172.509468062306, -61.276607828770665]}}, {"type": "Feature", "properties": {"norad_id": 27424, "name": "AQUA", "group": "resource", "lat": 10.502269628527523, "lon": -40.02955520577511, "alt_km": 688.9263504122464, "timestamp": "2025-12-26T10:30:49.915770+00:00", "meta": {"OBJECT_NAME": "AQUA", "OBJECT_ID": "2002-022A", "EPOCH": "2025-12-24T19:18:33.414624", "MEAN_MOTION": 14.61757572, "ECCENTRICITY": 0.00018094, "INCLINATION": 98.4055, "RA_OF_ASC_NODE": 319.881, "ARG_OF_PERICENTER": 102.1365, "MEAN_ANOMALY": 317.5475, "EPHEMERIS_TYPE": 0, "CLASSIFICATION_TYPE": "U", "NORAD_CAT_ID": 27424, "ELEMENT_SET_NO": 999, "REV_AT_EPOCH": 25779, "BSTAR": 0.00019560508, "MEAN_MOTION_DOT": 9.26e-06, "MEAN_MOTION_DDOT": 0}, "tle": {"line1": "1 27424U 02022A   25358.80455341  .00000926  00000+0  19561-3 0  9999", "line2": "2 27424  98.4055 319.8810 0001809 102.1365 317.5475 14.61757572257795"}}, "geometry": {"type": "Point", "coordinates": [-40.02955520577511, 10.502269628527523]}}, {"type": "Feature", "properties": {"norad_id": 28051, "name": "IRS-P6 (RESOURCESAT-1)", "group": "resource", "lat": 46.36196559352262, "lon": 31.494107324079128, "alt_km": 769.3247729600453, "timestamp": "2025-12-26T10:30:49.915781+00:00", "meta": {"OBJECT_NAME": "IRS-P6 (RESOURCESAT-1)", "OBJECT_ID": "2003-046A", "EPOCH": "2025-12-26T04:01:45.099840", "MEAN_MOTION": 14.36080525, "ECCENTRICITY": 0.0064959, "INCLINATION": 98.2158, "RA_OF_ASC_NODE": 39.9512, "ARG_OF_PERICENTER": 140.6147, "MEAN_ANOMALY": 311.1271, "EPHEMERIS_TYPE": 0, "CLASSIFICATION_TYPE": "U", "NORAD_CAT_ID": 28051, "ELEMENT_SET_NO": 999, "REV_AT_EPOCH": 15569, "BSTAR": 6.4824e-05, "MEAN_MOTION_DOT": 1.53e-06, "MEAN_MOTION_DDOT": 0}, "tle": {"line1": "1 28051U 03046A   25360.16788310  .00000153  00000+0  64824-4 0  9995", "line2": "2 28051  98.2158  39.9512 0064959 140.6147 311.1271 14.36080525155692"}}, "geometry": {"type": "Point", "coordinates": [31.494107324079128, 46.36196559352262]}}, {"type": "Feature", "properties": {"norad_id": 28220, "name": "SHIYAN-1 (SY-1)", "group": "resource", "lat": 36.2652708437521, "lon": -111.37369591259505, "alt_km": 479.8561813252445, "timestamp": "2025-12-26T10:30:49.915792+00:00", "meta": {"OBJECT_NAME": "SHIYAN-1 (SY-1)", "OBJECT_ID": "2004-012A", "EPOCH": "2025-12-26T02:01:58.498176", "MEAN_MOTION": 15.28486878, "ECCENTRICITY": 0.0005162, "INCLINATION": 97.8911, "RA_OF_ASC_NODE": 62.4117, "ARG_OF_PERICENTER": 269.0234, "MEAN_ANOMALY": 91.0413, "EPHEMERIS_TYPE": 0, "CLASSIFICATION_TYPE": "U", "NORAD_CAT_ID": 28220, "ELEMENT_SET_NO": 999, "REV_AT_EPOCH": 18460, "BSTAR": 0.00046656, "MEAN_MOTION_DOT": 0.00012867, "MEAN_MOTION_DDOT": 0}, "tle": {"line1": "1 28220U 04012A   25360.08470484  .00012867  00000+0  46656-3 0  9995", "line2": "2 28220  97.8911  62.4117 0005162 269.0234  91.0413 15.28486878184606"}}, "geometry": {"type": "Point", "coordinates": [-111.37369591259505, 36.2652708437521]}}, {"type": "Feature", "properties": {"norad_id": 28376, "name": "AURA", "group": "resource", "lat": 76.8034441359871, "lon": 169.34687811242645, "alt_km": 681.767350792451, "timestamp": "2025-12-26T10:30:49.915804+00:00", "meta": {"OBJECT_NAME": "AURA", "OBJECT_ID": "2004-026A", "EPOCH": "2025-12-26T03:28:54.881760", "MEAN_MOTION": 14.6097635, "ECCENTRICITY": 0.0001445, "INCLINATION": 98.3204, "RA_OF_ASC_NODE": 310.4354, "ARG_OF_PERICENTER": 90.5232, "MEAN_ANOMALY": 269.6134, "EPHEMERIS_TYPE": 0, "CLASSIFICATION_TYPE": "U", "NORAD_CAT_ID": 28376, "ELEMENT_SET_NO": 999, "REV_AT_EPOCH": 14094, "BSTAR": 0.0002242, "MEAN_MOTION_DOT": 1.051e-05, "MEAN_MOTION_DDOT": 0}, "tle": {"line1": "1 28376U 04026A   25360.14507965  .00001051  00000+0  22420-3 0  9990", "line2": "2 28376  98.3204 310.4354 0001445  90.5232 269.6134 14.60976350140949"}}, "geometry": {"type": "Point", "coordinates": [169.34687811242645, 76.8034441359871]}}]}